[{"OBJECT_NAME":"STARLINK-5738","OBJECT_ID":"2023-020E","EPOCH":"2026-03-09T04:59:50.874144","MEAN_MOTION":15.02538013,"ECCENTRICITY":0.00011997,"INCLINATION":43.0055,"RA_OF_ASC_NODE":7.534,"ARG_OF_PERICENTER":274.1323,"MEAN_ANOMALY":85.9382,"EPHEMERIS_TYPE":0,"CLASSIFICATION_TYPE":"U","NORAD_CAT_ID":55573,"ELEMENT_SET_NO":999,"REV_AT_EPOCH":16884,"BSTAR":-1.0852628e-5,"MEAN_MOTION_DOT":-3.5e-6,"MEAN_MOTION_DDOT":0},{"OBJECT_NAME":"OBJECT E","OBJECT_ID":"2024-205E","EPOCH":"2026-03-09T21:50:57.607872","MEAN_MOTION":15.117677,"ECCENTRICITY":0.00499914,"INCLINATION":97.419,"RA_OF_ASC_NODE":142.6836,"ARG_OF_PERICENTER":337.9131,"MEAN_ANOMALY":21.9945,"EPHEMERIS_TYPE":0,"CLASSIFICATION_TYPE":"U","NORAD_CAT_ID":61898,"ELEMENT_SET_NO":999,"REV_AT_EPOCH":7323,"BSTAR":0.00048588417,"MEAN_MOTION_DOT":8.479e-5,"MEAN_MOTION_DDOT":0}]
